QIANFAN-81              
1 63167U 25046J   25306.49470536  .00000146  00000+0  20684-3 0  9997
2 63167  88.9765 324.0415 0013136 232.4897 127.5061 13.50991533 42058
QIANFAN-82              
1 63168U 25046K   25306.45403584  .00000101  00000+0  13872-3 0  9995
2 63168  88.9765 324.0894 0011131 240.9104 119.0933 13.50972781 42034
QIANFAN-83              
1 63169U 25046L   25306.43881015  .00000079  00000+0  86305-4 0  9999
2 63169  88.9766 323.9465 0012626 227.1194 132.8904 13.61966880 42119
QIANFAN-84              
1 63170U 25046M   25306.48217053 -.00000022  00000+0 -52330-4 0  9992
2 63170  88.9761 324.2192 0014192 237.8718 122.1056 13.50987137 41965
QIANFAN-85              
1 63171U 25046N   25306.47868602  .00000127  00000+0  17838-3 0  9991
2 63171  88.9764 324.0916 0011493 239.7751 120.2262 13.50976613 42034
QIANFAN-86              
1 63172U 25046P   25306.48696897  .00000123  00000+0  17217-3 0  9995
2 63172  88.9767 323.9519 0009312 243.8289 116.1904 13.50973976 42119
QIANFAN-87              
1 63173U 25046Q   25306.45816443  .00000057  00000+0  70117-4 0  9999
2 63173  88.9763 324.0681 0010041 238.4656 121.5515 13.50969714 42042
QIANFAN-88              
1 63174U 25046R   25306.47463372  .00000107  00000+0  14787-3 0  9997
2 63174  88.9765 324.0199 0010320 247.9286 112.0770 13.50972047 42077
